{
    "CCSDS_OMM_VERS": "3.0",
    "COMMENT": "GENERATED VIA SPACE-TRACK.ORG API",
    "CREATION_DATE": "2025-11-23T21:08:43",
    "ORIGINATOR": "18 SPCS",
    "OBJECT_NAME": "GALILEO 7 (263)",
    "OBJECT_ID": "2015-017A",
    "CENTER_NAME": "EARTH",
    "REF_FRAME": "TEME",
    "TIME_SYSTEM": "UTC",
    "MEAN_ELEMENT_THEORY": "SGP4",
    "EPOCH": "2025-11-22T03:33:59.192064",
    "MEAN_MOTION": "1.70476185",
    "ECCENTRICITY": "0.00063928",
    "INCLINATION": "56.8511",
    "RA_OF_ASC_NODE": "347.2421",
    "ARG_OF_PERICENTER": "265.9419",
    "MEAN_ANOMALY": "94.0320",
    "EPHEMERIS_TYPE": "0",
    "CLASSIFICATION_TYPE": "U",
    "NORAD_CAT_ID": "40544",
    "ELEMENT_SET_NO": "999",
    "REV_AT_EPOCH": "6567",
    "BSTAR": "0.00000000000000",
    "MEAN_MOTION_DOT": "-0.00000069",
    "MEAN_MOTION_DDOT": "0.0000000000000",
    "SEMIMAJOR_AXIS": "29600.067",
    "PERIOD": "844.693",
    "APOAPSIS": "23240.855",
    "PERIAPSIS": "23203.009",
    "OBJECT_TYPE": "PAYLOAD",
    "RCS_SIZE": "LARGE",
    "COUNTRY_CODE": "ESA",
    "LAUNCH_DATE": "2015-03-27",
    "SITE": "FRGUI",
    "DECAY_DATE": null,
    "FILE": "4896238",
    "GP_ID": "303332278",
    "TLE_LINE0": "0 GALILEO 7 (263)",
    "TLE_LINE1": "1 40544U 15017A   25326.14860176 -.00000069  00000-0  00000-0 0  9998",
    "TLE_LINE2": "2 40544  56.8511 347.2421 0006393 265.9419  94.0320  1.70476185 65676"
}